start=new Date('2022-08-13T00:00:00.000Z').valueOf();
sats=[{"PERIAPSIS":"515.541","MEAN_MOTION_DDOT":"0.0000000000000","INCLINATION":"53.2175","OBJECT_ID":"2022-062S","DECAY_DATE":null,"APOAPSIS":"518.036","ARG_OF_PERICENTER":"41.9754","MEAN_ELEMENT_THEORY":"SGP4","OBJECT_TYPE":"PAYLOAD","TIME_SYSTEM":"UTC","BSTAR":"-0.06237900000000","FILE":"3535519","OBJECT_NAME":"STARLINK-4212","MEAN_ANOMALY":"217.3000","TLE_LINE1":"1 52846U 22062S   22224.91668981 -.01131017  00000-0 -62379-1 0  9991","ELEMENT_SET_NO":"999","REF_FRAME":"TEME","GP_ID":"210109046","TLE_LINE2":"2 52846  53.2175 131.5260 0001809  41.9754 217.3000 15.16381832  1301","LAUNCH_DATE":"2022-06-17","MEAN_MOTION_DOT":"-0.01131017","CENTER_NAME":"EARTH","SEMIMAJOR_AXIS":"6894.924","PERIOD":"94.963","CLASSIFICATION_TYPE":"U","SITE":"AFETR","ECCENTRICITY":"0.00018090","EPHEMERIS_TYPE":"0","RCS_SIZE":"LARGE","EPOCH":"2022-08-12T22:00:01.999584","MEAN_MOTION":"15.16381832","NORAD_CAT_ID":"52846","REV_AT_EPOCH":"130","RA_OF_ASC_NODE":"131.5260","COUNTRY_CODE":"US"},{"TLE_LINE2":"2 52847  53.2176 131.5301 0001500  51.2898 256.9490 15.17305214  1303","GP_ID":"210108915","MEAN_MOTION_DOT":"-0.01132278","LAUNCH_DATE":"2022-06-17","TLE_LINE1":"1 52847U 22062T   22224.91668981 -.01132278  00000-0 -60820-1 0  9991","ELEMENT_SET_NO":"999","REF_FRAME":"TEME","PERIOD":"94.905","CENTER_NAME":"EARTH","SEMIMAJOR_AXIS":"6892.126","CLASSIFICATION_TYPE":"U","SITE":"AFETR","ECCENTRICITY":"0.00015000","REV_AT_EPOCH":"130","RA_OF_ASC_NODE":"131.5301","COUNTRY_CODE":"US","RCS_SIZE":"LARGE","EPHEMERIS_TYPE":"0","EPOCH":"2022-08-12T22:00:01.999584","MEAN_MOTION":"15.17305214","NORAD_CAT_ID":"52847","PERIAPSIS":"512.957","MEAN_MOTION_DDOT":"0.0000000000000","OBJECT_ID":"2022-062T","DECAY_DATE":null,"APOAPSIS":"515.025","INCLINATION":"53.2176","TIME_SYSTEM":"UTC","BSTAR":"-0.06082000000000","MEAN_ELEMENT_THEORY":"SGP4","ARG_OF_PERICENTER":"51.2898","OBJECT_TYPE":"PAYLOAD","OBJECT_NAME":"STARLINK-4206","MEAN_ANOMALY":"256.9490","FILE":"3535519"},{"GP_ID":"210109178","TLE_LINE2":"2 52848  53.2175 131.5224 0001744  48.2553 177.7659 15.15757294  1305","MEAN_MOTION_DOT":"-0.01130606","LAUNCH_DATE":"2022-06-17","TLE_LINE1":"1 52848U 22062U   22224.91668981 -.01130606  00000-0 -63481-1 0  9991","ELEMENT_SET_NO":"999","REF_FRAME":"TEME","PERIOD":"95.002","CENTER_NAME":"EARTH","SEMIMAJOR_AXIS":"6896.817","CLASSIFICATION_TYPE":"U","SITE":"AFETR","ECCENTRICITY":"0.00017440","REV_AT_EPOCH":"130","RA_OF_ASC_NODE":"131.5224","COUNTRY_CODE":"US","EPOCH":"2022-08-12T22:00:01.999584","RCS_SIZE":"LARGE","EPHEMERIS_TYPE":"0","MEAN_MOTION":"15.15757294","NORAD_CAT_ID":"52848","PERIAPSIS":"517.480","MEAN_MOTION_DDOT":"0.0000000000000","OBJECT_ID":"2022-062U","DECAY_DATE":null,"APOAPSIS":"519.885","INCLINATION":"53.2175","TIME_SYSTEM":"UTC","BSTAR":"-0.06348100000000","ARG_OF_PERICENTER":"48.2553","MEAN_ELEMENT_THEORY":"SGP4","OBJECT_TYPE":"PAYLOAD","OBJECT_NAME":"STARLINK-4202","MEAN_ANOMALY":"177.7659","FILE":"3535519"},{"NORAD_CAT_ID":"52849","MEAN_MOTION":"15.56971654","RCS_SIZE":"LARGE","EPOCH":"2022-08-12T22:00:01.999584","EPHEMERIS_TYPE":"0","COUNTRY_CODE":"US","RA_OF_ASC_NODE":"126.1340","REV_AT_EPOCH":"130","ECCENTRICITY":"0.00014130","CLASSIFICATION_TYPE":"U","SITE":"AFETR","SEMIMAJOR_AXIS":"6774.564","CENTER_NAME":"EARTH","PERIOD":"92.487","REF_FRAME":"TEME","ELEMENT_SET_NO":"999","TLE_LINE1":"1 52849U 22062V   22224.91668981 -.01060790  00000-0 -15884-1 0  9992","MEAN_MOTION_DOT":"-0.01060790","LAUNCH_DATE":"2022-06-17","TLE_LINE2":"2 52849  53.2174 126.1340 0001413  48.5394 237.7276 15.56971654  1308","GP_ID":"210109440","FILE":"3535519","MEAN_ANOMALY":"237.7276","OBJECT_NAME":"STARLINK-4197","OBJECT_TYPE":"PAYLOAD","ARG_OF_PERICENTER":"48.5394","MEAN_ELEMENT_THEORY":"SGP4","BSTAR":"-0.01588400000000","TIME_SYSTEM":"UTC","INCLINATION":"53.2174","APOAPSIS":"397.387","DECAY_DATE":null,"OBJECT_ID":"2022-062V","MEAN_MOTION_DDOT":"0.0000000000000","PERIAPSIS":"395.472"},{"EPOCH":"2022-08-12T22:00:01.999584","RCS_SIZE":"LARGE","EPHEMERIS_TYPE":"0","NORAD_CAT_ID":"52850","MEAN_MOTION":"15.16992758","COUNTRY_CODE":"US","REV_AT_EPOCH":"130","RA_OF_ASC_NODE":"131.5287","SITE":"AFETR","CLASSIFICATION_TYPE":"U","ECCENTRICITY":"0.00013860","CENTER_NAME":"EARTH","SEMIMAJOR_AXIS":"6893.072","PERIOD":"94.925","ELEMENT_SET_NO":"999","TLE_LINE1":"1 52850U 22062W   22224.91668981 -.01131690  00000-0 -61337-1 0  9996","REF_FRAME":"TEME","MEAN_MOTION_DOT":"-0.01131690","LAUNCH_DATE":"2022-06-17","GP_ID":"210108653","TLE_LINE2":"2 52850  53.2176 131.5287 0001386  64.6219 227.4928 15.16992758  1300","FILE":"3535519","OBJECT_NAME":"STARLINK-4187","MEAN_ANOMALY":"227.4928","OBJECT_TYPE":"PAYLOAD","ARG_OF_PERICENTER":"64.6219","MEAN_ELEMENT_THEORY":"SGP4","BSTAR":"-0.06133700000000","TIME_SYSTEM":"UTC","INCLINATION":"53.2176","DECAY_DATE":null,"OBJECT_ID":"2022-062W","APOAPSIS":"515.893","PERIAPSIS":"513.982","MEAN_MOTION_DDOT":"0.0000000000000"},{"ECCENTRICITY":"0.00014680","CLASSIFICATION_TYPE":"U","SITE":"AFETR","COUNTRY_CODE":"US","REV_AT_EPOCH":"130","RA_OF_ASC_NODE":"126.1430","NORAD_CAT_ID":"52851","MEAN_MOTION":"15.56978642","EPHEMERIS_TYPE":"0","RCS_SIZE":"LARGE","EPOCH":"2022-08-12T22:00:01.999584","MEAN_MOTION_DOT":"-0.01060878","LAUNCH_DATE":"2022-06-17","TLE_LINE2":"2 52851  53.2174 126.1430 0001468  45.0813 241.9532 15.56978642  1305","GP_ID":"210109309","REF_FRAME":"TEME","ELEMENT_SET_NO":"999","TLE_LINE1":"1 52851U 22062X   22224.91668981 -.01060878  00000-0 -15881-1 0  9999","PERIOD":"92.487","SEMIMAJOR_AXIS":"6774.544","CENTER_NAME":"EARTH","BSTAR":"-0.01588100000000","TIME_SYSTEM":"UTC","OBJECT_TYPE":"PAYLOAD","MEAN_ELEMENT_THEORY":"SGP4","ARG_OF_PERICENTER":"45.0813","MEAN_ANOMALY":"241.9532","OBJECT_NAME":"STARLINK-3809","FILE":"3535519","MEAN_MOTION_DDOT":"0.0000000000000","PERIAPSIS":"395.415","APOAPSIS":"397.404","DECAY_DATE":null,"OBJECT_ID":"2022-062X","INCLINATION":"53.2174"},{"LAUNCH_DATE":"2022-06-17","MEAN_MOTION_DOT":"-0.01060639","TLE_LINE2":"2 52852  53.2174 126.1249 0001349  53.2315 232.2679 15.56964654  1303","GP_ID":"210108784","REF_FRAME":"TEME","ELEMENT_SET_NO":"999","TLE_LINE1":"1 52852U 22062Y   22224.91668981 -.01060639  00000-0 -15886-1 0  9990","PERIOD":"92.488","SEMIMAJOR_AXIS":"6774.585","CENTER_NAME":"EARTH","ECCENTRICITY":"0.00013490","SITE":"AFETR","CLASSIFICATION_TYPE":"U","COUNTRY_CODE":"US","REV_AT_EPOCH":"130","RA_OF_ASC_NODE":"126.1249","NORAD_CAT_ID":"52852","MEAN_MOTION":"15.56964654","EPHEMERIS_TYPE":"0","RCS_SIZE":"LARGE","EPOCH":"2022-08-12T22:00:01.999584","MEAN_MOTION_DDOT":"0.0000000000000","PERIAPSIS":"395.536","APOAPSIS":"397.364","DECAY_DATE":null,"OBJECT_ID":"2022-062Y","INCLINATION":"53.2174","BSTAR":"-0.01588600000000","TIME_SYSTEM":"UTC","OBJECT_TYPE":"PAYLOAD","MEAN_ELEMENT_THEORY":"SGP4","ARG_OF_PERICENTER":"53.2315","MEAN_ANOMALY":"232.2679","OBJECT_NAME":"STARLINK-4184","FILE":"3535519"},{"REF_FRAME":"TEME","ELEMENT_SET_NO":"999","TLE_LINE1":"1 52853U 22062Z   22224.91668981 -.01060726  00000-0 -15871-1 0  9992","LAUNCH_DATE":"2022-06-17","MEAN_MOTION_DOT":"-0.01060726","TLE_LINE2":"2 52853  53.2175 126.1607 0001320  55.0510 233.5185 15.56992399  1302","GP_ID":"210109571","SEMIMAJOR_AXIS":"6774.504","CENTER_NAME":"EARTH","PERIOD":"92.486","ECCENTRICITY":"0.00013200","SITE":"AFETR","CLASSIFICATION_TYPE":"U","NORAD_CAT_ID":"52853","MEAN_MOTION":"15.56992399","EPHEMERIS_TYPE":"0","RCS_SIZE":"LARGE","EPOCH":"2022-08-12T22:00:01.999584","COUNTRY_CODE":"US","REV_AT_EPOCH":"130","RA_OF_ASC_NODE":"126.1607","MEAN_MOTION_DDOT":"0.0000000000000","PERIAPSIS":"395.475","INCLINATION":"53.2175","APOAPSIS":"397.263","DECAY_DATE":null,"OBJECT_ID":"2022-062Z","OBJECT_TYPE":"PAYLOAD","ARG_OF_PERICENTER":"55.0510","MEAN_ELEMENT_THEORY":"SGP4","BSTAR":"-0.01587100000000","TIME_SYSTEM":"UTC","FILE":"3535519","MEAN_ANOMALY":"233.5185","OBJECT_NAME":"STARLINK-4189"},{"REV_AT_EPOCH":"130","RA_OF_ASC_NODE":"126.1516","COUNTRY_CODE":"US","MEAN_MOTION":"15.56985489","NORAD_CAT_ID":"52854","RCS_SIZE":"LARGE","EPOCH":"2022-08-12T22:00:01.999584","EPHEMERIS_TYPE":"0","ECCENTRICITY":"0.00013520","CLASSIFICATION_TYPE":"U","SITE":"AFETR","PERIOD":"92.486","SEMIMAJOR_AXIS":"6774.524","CENTER_NAME":"EARTH","TLE_LINE2":"2 52854  53.2174 126.1516 0001352  52.5718 235.2302 15.56985489  1300","GP_ID":"210109047","LAUNCH_DATE":"2022-06-17","MEAN_MOTION_DOT":"-0.01060728","REF_FRAME":"TEME","TLE_LINE1":"1 52854U 22062AA  22224.91668981 -.01060728  00000-0 -15875-1 0  9999","ELEMENT_SET_NO":"999","MEAN_ANOMALY":"235.2302","OBJECT_NAME":"STARLINK-4204","FILE":"3535519","TIME_SYSTEM":"UTC","BSTAR":"-0.01587500000000","ARG_OF_PERICENTER":"52.5718","MEAN_ELEMENT_THEORY":"SGP4","OBJECT_TYPE":"PAYLOAD","APOAPSIS":"397.305","OBJECT_ID":"2022-062AA","DECAY_DATE":null,"INCLINATION":"53.2174","MEAN_MOTION_DDOT":"0.0000000000000","PERIAPSIS":"395.473"},{"BSTAR":"-0.01585800000000","TIME_SYSTEM":"UTC","OBJECT_TYPE":"PAYLOAD","MEAN_ELEMENT_THEORY":"SGP4","ARG_OF_PERICENTER":"64.9812","OBJECT_NAME":"STARLINK-4209","MEAN_ANOMALY":"225.8904","FILE":"3535519","PERIAPSIS":"395.480","MEAN_MOTION_DDOT":"0.0000000000000","DECAY_DATE":null,"OBJECT_ID":"2022-062AB","APOAPSIS":"397.140","INCLINATION":"53.2175","CLASSIFICATION_TYPE":"U","SITE":"AFETR","ECCENTRICITY":"0.00012250","COUNTRY_CODE":"US","REV_AT_EPOCH":"130","RA_OF_ASC_NODE":"126.1770","RCS_SIZE":"LARGE","EPHEMERIS_TYPE":"0","EPOCH":"2022-08-12T22:00:01.999584","NORAD_CAT_ID":"52855","MEAN_MOTION":"15.57012887","MEAN_MOTION_DOT":"-0.01060651","LAUNCH_DATE":"2022-06-17","GP_ID":"210108916","TLE_LINE2":"2 52855  53.2175 126.1770 0001225  64.9812 225.8904 15.57012887  1302","ELEMENT_SET_NO":"999","TLE_LINE1":"1 52855U 22062AB  22224.91668981 -.01060651  00000-0 -15858-1 0  9996","REF_FRAME":"TEME","PERIOD":"92.485","CENTER_NAME":"EARTH","SEMIMAJOR_AXIS":"6774.445"}];
